NORAD_CAT_ID,OBJECT_NAME,OBJECT_TYPE,EPOCH,MEAN_MOTION,ECCENTRICITY,INCLINATION,RA_OF_ASC_NODE,ARG_OF_PERICENTER,MEAN_ANOMALY,BSTAR,MEAN_MOTION_DOT,MEAN_MOTION_DDOT,TLE_LINE0,TLE_LINE1,TLE_LINE2,SEMIMAJOR_AXIS,PERIOD,APOGEE,PERIGEE,DECAYED
53275.0,STARLINK-4179,PAYLOAD,2023-09-01 06:52:21,15.08838023,0.000153,53.2203,355.975,97.8944,262.2221,5.2836e-05,5.53e-06,0.0,0 STARLINK-4179,1 53275U 22086AK  23244.28635432  .00000553  00000-0  52836-4 0  9999,2 53275  53.2203 355.9750 0001530  97.8944 262.2221 15.08838023 62242,6917.886,95.438,540.81,538.693,0.0
53275.0,STARLINK-4179,PAYLOAD,2023-09-01 18:00:02,15.08841777,0.0001626,53.2184,353.8929,97.8217,262.296,0.00016241,2.298e-05,0.0,0 STARLINK-4179,1 53275U 22086AK  23244.75002860  .00002298  00000-0  16241-3 0  9991,2 53275  53.2184 353.8929 0001626  97.8217 262.2960 15.08841777 62143,6917.875,95.437,540.865,538.615,0.0
53275.0,STARLINK-4179,PAYLOAD,2023-09-02 00:21:35,15.08839437,0.0001967,53.216,352.7045,84.3065,275.8151,5.9775e-05,6.63e-06,0.0,0 STARLINK-4179,1 53275U 22086AK  23245.01499509  .00000663  00000-0  59775-4 0  9995,2 53275  53.2160 352.7045 0001967  84.3065 275.8151 15.08839437 62180,6917.882,95.438,541.108,538.386,0.0
53275.0,STARLINK-4179,PAYLOAD,2023-09-02 13:04:40,15.08839267,0.000159,53.2203,350.3253,86.4378,273.6796,7.7033e-05,9.38e-06,0.0,0 STARLINK-4179,1 53275U 22086AK  23245.54491357  .00000938  00000-0  77033-4 0  9998,2 53275  53.2203 350.3253 0001590  86.4378 273.6796 15.08839267 62435,6917.883,95.438,540.848,538.648,0.0
53275.0,STARLINK-4179,PAYLOAD,2023-09-02 14:40:03,15.08843856,0.000134,53.2179,350.0266,85.3228,274.7917,0.00012635,1.724e-05,0.0,0 STARLINK-4179,1 53275U 22086AK  23245.61114895  .00001724  00000-0  12635-3 0  9995,2 53275  53.2179 350.0266 0001340  85.3228 274.7917 15.08843856 62440,6917.869,95.437,540.661,538.807,0.0
53275.0,STARLINK-4179,PAYLOAD,2023-09-03 00:12:21,15.08848142,0.0001571,53.218,348.2427,86.4863,273.6308,8.222e-05,1.021e-05,0.0,0 STARLINK-4179,1 53275U 22086AK  23246.00858752  .00001021  00000-0  82220-4 0  9994,2 53275  53.2180 348.2427 0001571  86.4863 273.6308 15.08848142 62336,6917.856,95.437,540.807,538.634,0.0
53275.0,STARLINK-4179,PAYLOAD,2023-09-03 12:55:26,15.0885066,0.000153,53.2179,345.8637,86.6155,273.5012,9.4586e-05,1.218e-05,0.0,0 STARLINK-4179,1 53275U 22086AK  23246.53850321  .00001218  00000-0  94586-4 0  9992,2 53275  53.2179 345.8637 0001530  86.6155 273.5012 15.08850660 62587,6917.848,95.437,540.771,538.654,0.0
53275.0,STARLINK-4179,PAYLOAD,2023-09-04 06:24:42,15.08833742,0.0002191,53.2187,342.5934,86.3975,273.7268,-6.7158e-06,-3.95e-06,0.0,0 STARLINK-4179,1 53275U 22086AK  23247.26715713 -.00000395  00000-0 -67158-5 0  9991,2 53275  53.2187 342.5934 0002191  86.3975 273.7268 15.08833742 62522,6917.9,95.438,541.28,538.249,0.0
53275.0,STARLINK-4179,PAYLOAD,2023-09-04 12:46:14,15.08833193,0.000205,53.2176,341.4027,89.5874,270.5353,1.0932e-05,-1.14e-06,0.0,0 STARLINK-4179,1 53275U 22086AK  23247.53211716 -.00000114  00000-0  10932-4 0  9990,2 53275  53.2176 341.4027 0002050  89.5874 270.5353 15.08833193 62731,6917.901,95.438,541.184,538.348,0.0
53275.0,STARLINK-4179,PAYLOAD,2023-09-05 06:15:29,15.08838323,0.00011,53.2181,338.1316,97.5945,262.5172,2.072e-05,4.2e-07,0.0,0 STARLINK-4179,1 53275U 22086AK  23248.26075467  .00000042  00000-0  20720-4 0  9997,2 53275  53.2181 338.1316 0001100  97.5945 262.5172 15.08838323 62677,6917.886,95.438,540.511,538.99,0.0
53275.0,STARLINK-4179,PAYLOAD,2023-09-06 06:06:16,15.08835704,0.0001308,53.2179,333.6714,101.9613,258.1526,0.00024291,3.58e-05,0.0,0 STARLINK-4179,1 53275U 22086AK  23249.25435296  .00003580  00000-0  24291-3 0  9993,2 53275  53.2179 333.6714 0001308 101.9613 258.1526 15.08835704 62997,6917.894,95.438,540.663,538.854,0.0
53275.0,STARLINK-4179,PAYLOAD,2023-09-07 05:57:03,15.08841723,0.0001374,53.2182,329.2104,108.4919,251.6222,5.6738e-05,6.15e-06,0.0,0 STARLINK-4179,1 53275U 22086AK  23250.24795648  .00000615  00000-0  56738-4 0  9992,2 53275  53.2182 329.2104 0001374 108.4919 251.6222 15.08841723 62976,6917.875,95.437,540.691,538.79,0.0
53275.0,STARLINK-4179,PAYLOAD,2023-09-07 09:07:49,15.08838191,0.0001383,53.2181,328.616,104.8225,255.2921,2.2481e-05,7e-07,0.0,0 STARLINK-4179,1 53275U 22086AK  23250.38043928  .00000070  00000-0  22481-4 0  9997,2 53275  53.2181 328.6160 0001383 104.8225 255.2921 15.08838191 63163,6917.886,95.438,540.708,538.794,0.0
53275.0,STARLINK-4179,PAYLOAD,2023-09-08 10:34:00,15.08840971,0.0001277,53.2178,323.859,89.519,270.5948,5.6994e-05,6.19e-06,0.0,0 STARLINK-4179,1 53275U 22086AK  23251.44027796  .00000619  00000-0  56994-4 0  9995,2 53275  53.2178 323.8590 0001277  89.5190 270.5948 15.08840971 63152,6917.877,95.437,540.626,538.859,0.0
53275.0,STARLINK-4179,PAYLOAD,2023-09-08 15:20:09,15.08845935,0.0001279,53.2182,322.9676,84.5514,275.5624,9.4266e-05,1.213e-05,0.0,0 STARLINK-4179,1 53275U 22086AK  23251.63899378  .00001213  00000-0  94266-4 0  9994,2 53275  53.2182 322.9676 0001279  84.5514 275.5624 15.08845935 63352,6917.862,95.437,540.612,538.842,0.0
53275.0,STARLINK-4179,PAYLOAD,2023-09-08 21:41:42,15.08830898,0.0001291,53.2186,321.778,86.2194,273.8946,5.9812e-05,6.64e-06,0.0,0 STARLINK-4179,1 53275U 22086AK  23251.90396386  .00000664  00000-0  59812-4 0  9992,2 53275  53.2186 321.7780 0001291  86.2194 273.8946 15.08830898 63222,6917.908,95.438,540.666,538.88,0.0
53275.0,STARLINK-4179,PAYLOAD,2023-09-09 12:00:10,15.08838061,0.0001398,53.2182,319.1019,83.6068,276.5083,0.00011953,1.615e-05,0.0,0 STARLINK-4179,1 53275U 22086AK  23252.50012218  .00001615  00000-0  11953-3 0  9998,2 53275  53.2182 319.1019 0001398  83.6068 276.5083 15.08838061 63483,6917.886,95.438,540.718,538.784,0.0
53275.0,STARLINK-4179,PAYLOAD,2023-09-10 11:50:57,15.08850219,0.0001375,53.2178,314.6418,87.705,272.41,0.00012943,1.773e-05,0.0,0 STARLINK-4179,1 53275U 22086AK  23253.49371610  .00001773  00000-0  12943-3 0  9996,2 53275  53.2178 314.6418 0001375  87.7050 272.4100 15.08850219 63633,6917.849,95.437,540.665,538.763,0.0
53275.0,STARLINK-4179,PAYLOAD,2023-09-10 21:23:16,15.08840988,0.0001542,53.2174,312.8574,76.468,283.6484,3.1279e-05,2.1e-06,0.0,0 STARLINK-4179,1 53275U 22086AK  23253.89116124  .00000210  00000-0  31279-4 0  9996,2 53275  53.2174 312.8574 0001542  76.4680 283.6484 15.08840988 63521,6917.877,95.437,540.809,538.676,0.0
53275.0,STARLINK-4179,PAYLOAD,2023-09-11 10:06:22,15.08836693,0.0001544,53.2177,310.4783,78.546,281.5706,2.6342e-05,1.31e-06,0.0,0 STARLINK-4179,1 53275U 22086AK  23254.42108858  .00000131  00000-0  26342-4 0  9998,2 53275  53.2177 310.4783 0001544  78.5460 281.5706 15.08836693 63602,6917.89,95.438,540.824,538.687,0.0
53275.0,STARLINK-4179,PAYLOAD,2023-09-11 21:14:03,15.08843228,0.000153,53.2181,308.3969,83.1432,276.9734,8.3966e-05,1.049e-05,0.0,0 STARLINK-4179,1 53275U 22086AK  23254.88476301  .00001049  00000-0  83966-4 0  9993,2 53275  53.2181 308.3969 0001530  83.1432 276.9734 15.08843228 63673,6917.871,95.437,540.794,538.677,0.0
53275.0,STARLINK-4179,PAYLOAD,2023-09-12 09:57:07,15.08854621,0.000151,53.2172,306.0172,81.136,278.9804,0.00012665,1.729e-05,0.0,0 STARLINK-4179,1 53275U 22086AK  23255.41467433  .00001729  00000-0  12665-3 0  9991,2 53275  53.2172 306.0172 0001510  81.1360 278.9804 15.08854621 63758,6917.836,95.437,540.745,538.656,0.0
53275.0,STARLINK-4179,PAYLOAD,2023-09-12 21:04:50,15.08850353,0.0001585,53.2164,303.9365,79.328,280.7891,0.00014617,2.04e-05,0.0,0 STARLINK-4179,1 53275U 22086AK  23255.87835764  .00002040  00000-0  14617-3 0  9993,2 53275  53.2164 303.9365 0001585  79.3280 280.7891 15.08850353 63824,6917.849,95.437,540.81,538.617,0.0
53275.0,STARLINK-4179,PAYLOAD,2023-09-13 09:47:56,15.08832398,0.0001487,53.2175,301.5563,88.1431,271.9731,4.8219e-06,-2.11e-06,0.0,0 STARLINK-4179,1 53275U 22086AK  23256.40828847 -.00000211  00000-0  48219-5 0  9993,2 53275  53.2175 301.5563 0001487  88.1431 271.9731 15.08832398 63900,6917.904,95.438,540.797,538.74,0.0
53275.0,STARLINK-4179,PAYLOAD,2023-09-13 14:34:05,15.08835679,0.0001468,53.2176,300.6637,91.3315,268.7845,2.5461e-05,1.17e-06,0.0,0 STARLINK-4179,1 53275U 22086AK  23256.60700558  .00000117  00000-0  25461-4 0  9990,2 53275  53.2176 300.6637 0001468  91.3315 268.7845 15.08835679 64107,6917.894,95.438,540.774,538.743,0.0
53275.0,STARLINK-4179,PAYLOAD,2023-09-14 09:38:43,15.08834621,0.000171,53.2185,297.0962,110.7747,249.3428,-8.6693e-05,-1.667e-05,0.0,0 STARLINK-4179,1 53275U 22086AK  23257.40189242 -.00001667  00000-0 -86693-4 0  9997,2 53275  53.2185 297.0962 0001710 110.7747 249.3428 15.08834621 64223,6917.897,95.438,540.945,538.579,0.0
53275.0,STARLINK-4179,PAYLOAD,2023-09-14 19:11:02,15.08839472,0.0001677,53.2186,295.3124,114.032,246.0848,-7.3964e-05,-1.465e-05,0.0,0 STARLINK-4179,1 53275U 22086AK  23257.79932961 -.00001465  00000-0 -73964-4 0  9996,2 53275  53.2186 295.3124 0001677 114.0320 246.0848 15.08839472 64286,6917.882,95.438,540.907,538.587,0.0
53275.0,STARLINK-4179,PAYLOAD,2023-09-15 03:07:57,15.08835061,0.000138,53.2169,293.8243,96.8083,263.3066,0.00011306,1.512e-05,0.0,0 STARLINK-4179,1 53275U 22086AK  23258.13052790  .00001512  00000-0  11306-3 0  9990,2 53275  53.2169 293.8243 0001380  96.8083 263.3066 15.08835061 64167,6917.895,95.438,540.715,538.806,0.0
53275.0,STARLINK-4179,PAYLOAD,2023-09-15 07:54:06,15.08851665,0.0001645,53.2168,292.9325,96.2763,263.8416,-1.678e-05,-5.55e-06,0.0,0 STARLINK-4179,1 53275U 22086AK  23258.32924195 -.00000555  00000-0 -16780-4 0  9998,2 53275  53.2168 292.9325 0001645  96.2763 263.8416 15.08851665 64195,6917.845,95.437,540.848,538.572,0.0
53275.0,STARLINK-4179,PAYLOAD,2023-09-16 01:23:21,15.0883153,0.0001469,53.2166,289.6625,96.707,263.4089,0.00013962,1.934e-05,0.0,0 STARLINK-4179,1 53275U 22086AK  23259.05789308  .00001934  00000-0  13962-3 0  9992,2 53275  53.2166 289.6625 0001469  96.7070 263.4089 15.08831530 64303,6917.906,95.438,540.788,538.755,0.0
